OPTICUBE 04             
1 41851U 16067D   24238.52082470  .00005776  00000+0  42706-3 0  9992
2 41851  98.0842  46.4203 0017899 178.7514 181.3758 15.03496622425651
AEROCUBE 8D             
1 41852U 16067E   24238.93926941  .00011050  00000+0  69665-3 0  9993
2 41852  98.1137  52.0489 0004224 225.1372 134.9512 15.09314298425911
AEROCUBE 8C             
1 41853U 16067F   24238.88847515  .00012148  00000+0  76546-3 0  9992
2 41853  98.0952  50.4014 0007814 160.4184 199.7344 15.09291176425890
PROMETHEUS 2-1          
1 41854U 16067G   24239.01336656  .00026058  00000+0  11936-2 0  9994
2 41854  98.1027  59.1177 0011835 177.8601 182.2685 15.20408602426337
PROMETHEUS 2-3          
1 41855U 16067H   24239.01141120  .00025888  00000+0  11882-2 0  9995
2 41855  98.0963  58.5366 0010107 187.7465 172.3614 15.20358539426333
AALTO-1                 
1 42775U 17036L   24239.05272496  .00982708  54119-3  12631-2 0  9999
2 42775  97.0827 270.8100 0006586 217.2138 142.8689 16.07326054400148
CORVUS BC2              
1 42846U 17042X   24239.05589327  .00007018  00000+0  58984-3 0  9999
2 42846  97.3765  60.3065 0008448 169.1403 191.0005 14.98556795387903
CORVUS BC1              
1 42847U 17042Y   24238.47553330  .00006492  00000+0  54378-3 0  9998
2 42847  97.3775  60.1713 0007584 170.9680 189.1681 14.98716379387836
MIRATA                  
1 43015U 17073C   24238.94270655  .00037864  00000+0  16138-2 0  9996
2 43015  97.5838 123.0157 0159253  22.9027 337.9203 15.12008227366854
MAKERSAT 0              
1 43016U 17073D   24238.63433854  .00023022  00000+0  12405-2 0  9999
2 43016  97.5684 115.7539 0188740  48.0142 313.6985 15.00726493366314
GOMX-4B                 
1 43196U 18015E   24239.02867741  .00180341  00000+0  99069-3 0  9995
2 43196  97.6037  58.6775 0003492  27.5351 332.6099 15.79242585366483
SIRION PATHFINDER-2     
1 43759U 18099B   24238.71952300  .00008400  00000+0  61276-3 0  9997
2 43759  97.5211 292.9332 0011722  55.8621 304.3715 15.03896995312953
CORVUS BC4              
1 43767U 18099K   24238.71991035  .00006660  00000+0  49711-3 0  9990
2 43767  97.5054 289.9317 0012002 106.0706 254.1842 15.03102917312835
MOVE-II                 
1 43780U 18099Y   24238.91661930  .00032681  00000+0  15104-2 0  9995
2 43780  97.5145 301.4170 0006834 102.8761 257.3238 15.20085870313505
SPACEBEE-7              
1 43816U 18099BL  24238.91777422  .00021510  00000+0  11677-2 0  9999
2 43816  97.5422 301.8723 0009628  55.0720 305.1415 15.14513751312953
SPACEBEE-6              
1 43818U 18099BN  24238.77211760  .00056124  00000+0  18893-2 0  9999
2 43818  97.5335 308.4413 0005926  49.4462 310.7294 15.30560750313524
SHIELDS 1               
1 43850U 18104B   24239.02250496  .00020561  00000+0  50599-3 0  9996
2 43850  85.0191 235.6135 0012059 154.3531 205.8322 15.40402019316907
SONATE                  
1 44400U 19038Q   24238.91043964  .00030317  00000+0  80050-3 0  9997
2 44400  97.7157 236.3210 0014052 205.7093 154.3455 15.38307312284784
LUCKY-7                 
1 44406U 19038W   24238.99504268  .00068591  00000+0  11083-2 0  9994
2 44406  97.7032 241.7104 0012553 178.7397 181.3889 15.52546183285165
DUCHIFAT-3              
1 44854U 19089C   24239.51416165  .00024831  00000+0  11389-2 0  9992
2 44854  36.9563 341.1141 0005595 335.5444  24.5038 15.19650988258892
M2 PATHFINDER           
1 45727U 20037E   24238.54501514  .00005899  00000+0  50501-3 0  9995
2 45727  97.7805  54.6618 0010553 251.8362 108.1711 14.97919734226322
NETSAT-4                
1 46504U 20068U   24238.83411428  .00014570  00000+0  73562-3 0  9997
2 46504  97.8107 197.9662 0012054 118.1994 242.0457 15.17147514214724
NETSAT-3                
1 46505U 20068V   24238.84632038  .00015413  00000+0  79146-3 0  9992
2 46505  97.8080 197.3956 0011237 124.9260 235.3030 15.16547823214715
NETSAT-1                
1 46506U 20068W   24238.84707993  .00011797  00000+0  64232-3 0  9997
2 46506  97.8100 196.6927 0009702 133.2161 226.9882 15.14555630214664
NETSAT-2                
1 46507U 20068X   24238.85382326  .00014564  00000+0  73665-3 0  9993
2 46507  97.8086 197.5966 0009027 134.5392 225.6579 15.17112440214672
WILDTRACKCUBE-SIMBA     
1 47941U 21022K   24239.48910676  .00021237  00000+0  86898-3 0  9999
2 47941  97.4495 135.7176 0012036 253.6339 106.3576 15.24283381189168
GRBALPHA                
1 47959U 21022AD  24239.50552194  .00032049  00000+0  10981-2 0  9990
2 47959  97.4492 138.1060 0010241 239.1324 120.8910 15.30090171188142
BCCSAT-1                
1 48041U 21022AK  24239.27322772  .00332161  00000+0  24005-2 0  9994
2 48041  97.4452 149.6633 0010494 145.3036 214.8914 15.72463855188846
BEESAT-8                
1 48085U 21022AP  24239.48819198  .00045703  00000+0  12030-2 0  9996
2 48085  97.4681 142.5299 0008589 214.7441 145.3244 15.38375367188667
LEDSAT                  
1 49069U 21073D   24239.46679888  .00027086  00000+0  97837-3 0  9996
2 49069  97.4312 310.2572 0017791  39.2982 320.9545 15.28298052167176
ROBUSTA-1F (MTCUBE 2)   
1 53109U 22080E   24238.19698299 -.00000003  00000+0  00000+0 0  9994
2 53109  70.1277 168.1299 0007799  72.9225 287.2288  6.42584220 49596
SITRO-AIS 5 (KATYS)     
1 57176U 23091L   24239.50372162  .00012048  00000+0  73969-3 0  9998
2 57176  97.6060 291.1323 0016280 237.8922 122.0727 15.10141893 64102
SITRO-AIS 6 (CHIRKIN)   
1 57192U 23091AC  24239.41997765  .00011985  00000+0  73491-3 0  9997
2 57192  97.6065 291.0781 0015981 237.6504 122.3178 15.10192851 64094
SITRO-AIS 8 (ANOKHIN)   
1 57193U 23091AD  24239.43696427  .00013586  00000+0  82247-3 0  9999
2 57193  97.6057 291.1997 0015795 238.6040 121.3645 15.10630386 64105
SITRO-AIS 7 (FARTUSHNIY)
1 57194U 23091AE  24239.42733524  .00012003  00000+0  73721-3 0  9999
2 57194  97.6062 291.0607 0015912 238.5246 121.4428 15.10133262 64096
SITRO-AIS 10 (BURDAEV)  
1 57199U 23091AK  24239.51899079  .00013768  00000+0  79042-3 0  9993
2 57199  97.6073 292.3984 0011335 223.1780 136.8562 15.12596751 64180
SITRO-AIS 9 (SHCHUKIN)  
1 57201U 23091AM  24239.45211458  .00013648  00000+0  78423-3 0  9998
2 57201  97.6068 292.3059 0011293 223.3208 136.7135 15.12568623 64172
SITRO-AIS 12 (SMIRENNIY)
1 57204U 23091AQ  24239.40564941  .00013921  00000+0  79541-3 0  9990
2 57204  97.6081 292.4190 0011242 216.6721 143.3741 15.12766426 64174
SITRO-AIS 11 (SHEFFER)  
1 57208U 23091AU  24239.51934912  .00014130  00000+0  80477-3 0  9998
2 57208  97.6074 292.5629 0011212 217.1556 142.8899 15.12879443 64191
ROBUSTA-1E (ENSO)       
1 58470U 23185J   24239.49049425  .00025581  00000+0  97605-3 0  9990
2 58470  97.4198 305.5926 0011614  37.1283 323.0757 15.26586555 40853
SITRO-AIS 29            
1 59052U 24039B   24239.54245157  .00037797  00000+0  11997-2 0  9993
2 59052  97.3960 201.1855 0013267 339.0130  21.0566 15.32485997 27357
SITRO-AIS 30            
1 59053U 24039C   24239.48060932  .00035861  00000+0  11444-2 0  9990
2 59053  97.3959 201.1103 0013552 339.9566  20.1142 15.32320881 27339
SITRO-AIS 31            
1 59054U 24039D   24239.20566576  .00038728  00000+0  12281-2 0  9991
2 59054  97.3958 200.8687 0013469 340.9423  19.1313 15.32507615 27311
SITRO-AIS 33            
1 59055U 24039E   24239.51785472  .00037857  00000+0  11952-2 0  9990
2 59055  97.3962 201.2218 0013209 340.6527  19.4212 15.32656888 27358
SITRO-AIS 35            
1 59056U 24039F   24239.51330750  .00038052  00000+0  12017-2 0  9997
2 59056  97.3960 201.2240 0013097 341.2917  18.7842 15.32648724 27358
SITRO-AIS 32            
1 59057U 24039G   24239.52586481  .00038101  00000+0  12084-2 0  9992
2 59057  97.3962 201.2099 0013128 341.2659  18.8098 15.32510772 27356
SITRO-AIS 34            
1 59058U 24039H   24239.51898744  .00038202  00000+0  12064-2 0  9990
2 59058  97.3963 201.2218 0013163 341.0813  18.9938 15.32647705 27351
SITRO-AIS 36            
1 59059U 24039J   24239.50583872  .00041145  00000+0  12934-2 0  9999
2 59059  97.3963 201.2345 0012784 341.5848  18.4929 15.32781946 27355
SITRO-AIS 49            
1 59060U 24039K   24239.18222126  .00040992  00000+0  12940-2 0  9993
2 59060  97.3963 200.9046 0012916 342.0496  18.0288 15.32647138 27306
SITRO-AIS 50            
1 59061U 24039L   24239.49175075  .00038562  00000+0  12085-2 0  9998
2 59061  97.3962 201.2521 0012674 341.1950  18.8823 15.32895533 27356
SITRO-AIS 51            
1 59062U 24039M   24239.49157766  .00037442  00000+0  11729-2 0  9996
2 59062  97.3962 201.2515 0012673 341.5312  18.5468 15.32916011 27352
SITRO-AIS 52            
1 59063U 24039N   24239.48086760  .00037187  00000+0  11606-2 0  9991
2 59063  97.3962 201.2684 0012528 341.7142  18.3648 15.33037865 27352
SITRO-AIS 25            
1 59066U 24039R   24239.50440895  .00008246  00000+0  76767-3 0  9994
2 59066  95.3973 145.0091 0171666 100.8904 261.1686 14.83819250 26530
SITRO-AIS 26            
1 59067U 24039S   24239.50566726  .00007512  00000+0  70073-3 0  9996
2 59067  95.3973 145.0070 0171611 100.9225 261.1356 14.83764807 26536
SITRO-AIS 27            
1 59068U 24039T   24239.48812611  .00008333  00000+0  77386-3 0  9997
2 59068  95.3975 145.0276 0171185 100.7633 261.2910 14.83963492 26532
SITRO-AIS 28            
1 59071U 24039U   24239.48358950  .00008293  00000+0  76973-3 0  9998
2 59071  95.3975 145.0335 0171014 100.7422 261.3103 14.84001681 26538
GRBBETA                 
1 60237U 24128C   24239.21753620  .00007347  00000+0  64213-3 0  9990
2 60237  61.9962 357.8417 0014166 322.2368  37.7725 14.97488396  7087
OOV-CUBE (TUBSAT-30)    
1 60240U 24128F   24239.16987561  .00005091  00000+0  45875-3 0  9998
2 60240  61.9999 358.1840 0012624 310.3595  49.6390 14.96770530  7085
ROBUSTA-3A (MEDITERRAN*)
1 60243U 24128J   24239.18414788  .00010774  00000+0  95379-3 0  9997
2 60243  61.9937 358.2098 0014499 298.2909  61.6715 14.96633352  7086
